start=new Date('2023-06-12T00:00:00.000Z').valueOf();
sats=[{"CLASSIFICATION_TYPE":"U","SEMIMAJOR_AXIS":"6925.425","INCLINATION":"53.0540","DECAY_DATE":null,"APOAPSIS":"548.154","TLE_LINE1":"1 46141U 20057AA  23162.78835103  .00022196  00000-0  15053-2 0  9995","ELEMENT_SET_NO":"999","COUNTRY_CODE":"US","SITE":"AFETR","REV_AT_EPOCH":"15561","TIME_SYSTEM":"UTC","RA_OF_ASC_NODE":"94.3318","MEAN_ANOMALY":"253.0012","PERIAPSIS":"546.427","MEAN_MOTION_DOT":"0.00022196","ECCENTRICITY":"0.00012470","OBJECT_ID":"2020-057AA","CENTER_NAME":"EARTH","MEAN_MOTION_DDOT":"0.0000000000000","LAUNCH_DATE":"2020-08-18","NORAD_CAT_ID":"46141","RCS_SIZE":"LARGE","GP_ID":"233723105","OBJECT_NAME":"STARLINK-1596","TLE_LINE2":"2 46141  53.0540  94.3318 0001247 107.1114 253.0012 15.06374905155613","EPOCH":"2023-06-11T18:55:13.528992","EPHEMERIS_TYPE":"0","OBJECT_TYPE":"PAYLOAD","FILE":"3930737","MEAN_ELEMENT_THEORY":"SGP4","REF_FRAME":"TEME","ARG_OF_PERICENTER":"107.1114","BSTAR":"0.00150530000000","PERIOD":"95.594","MEAN_MOTION":"15.06374905"},{"PERIAPSIS":"546.226","RA_OF_ASC_NODE":"136.3275","MEAN_ANOMALY":"266.3986","ECCENTRICITY":"0.00014270","MEAN_MOTION_DOT":"0.00002083","MEAN_MOTION_DDOT":"0.0000000000000","OBJECT_ID":"2020-057AB","CENTER_NAME":"EARTH","NORAD_CAT_ID":"46142","LAUNCH_DATE":"2020-08-18","DECAY_DATE":null,"CLASSIFICATION_TYPE":"U","SEMIMAJOR_AXIS":"6925.349","INCLINATION":"53.0532","TLE_LINE1":"1 46142U 20057AB  23162.34234483  .00002083  00000-0  15867-3 0  9999","ELEMENT_SET_NO":"999","COUNTRY_CODE":"US","APOAPSIS":"548.202","SITE":"AFETR","REV_AT_EPOCH":"15498","TIME_SYSTEM":"UTC","ARG_OF_PERICENTER":"93.7166","BSTAR":"0.00015867000000","PERIOD":"95.592","MEAN_MOTION":"15.06399808","RCS_SIZE":"LARGE","TLE_LINE2":"2 46142  53.0532 136.3275 0001427  93.7166 266.3986 15.06399808154986","OBJECT_NAME":"STARLINK-1597","GP_ID":"233691456","EPHEMERIS_TYPE":"0","EPOCH":"2023-06-11T08:12:58.593312","REF_FRAME":"TEME","OBJECT_TYPE":"PAYLOAD","FILE":"3930529","MEAN_ELEMENT_THEORY":"SGP4"},{"REF_FRAME":"TEME","OBJECT_TYPE":"PAYLOAD","MEAN_ELEMENT_THEORY":"SGP4","FILE":"3930545","EPHEMERIS_TYPE":"0","EPOCH":"2023-06-11T13:44:41.839872","TLE_LINE2":"2 46144  53.0536 115.2960 0001497  87.8254 272.2906 15.06394715155978","OBJECT_NAME":"STARLINK-1606","GP_ID":"233699287","RCS_SIZE":"LARGE","MEAN_MOTION":"15.06394715","PERIOD":"95.592","ARG_OF_PERICENTER":"87.8254","BSTAR":"0.00011375000000","TIME_SYSTEM":"UTC","SITE":"AFETR","REV_AT_EPOCH":"15597","TLE_LINE1":"1 46144U 20057AD  23162.57270648  .00001413  00000-0  11375-3 0  9995","ELEMENT_SET_NO":"999","COUNTRY_CODE":"US","APOAPSIS":"548.266","DECAY_DATE":null,"CLASSIFICATION_TYPE":"U","SEMIMAJOR_AXIS":"6925.365","INCLINATION":"53.0536","NORAD_CAT_ID":"46144","LAUNCH_DATE":"2020-08-18","MEAN_MOTION_DDOT":"0.0000000000000","OBJECT_ID":"2020-057AD","CENTER_NAME":"EARTH","ECCENTRICITY":"0.00014970","MEAN_MOTION_DOT":"0.00001413","PERIAPSIS":"546.193","RA_OF_ASC_NODE":"115.2960","MEAN_ANOMALY":"272.2906"},{"MEAN_MOTION_DDOT":"0.0000000000000","CENTER_NAME":"EARTH","OBJECT_ID":"2020-057AF","NORAD_CAT_ID":"46146","LAUNCH_DATE":"2020-08-18","PERIAPSIS":"546.430","MEAN_ANOMALY":"264.6188","RA_OF_ASC_NODE":"133.5984","ECCENTRICITY":"0.00011110","MEAN_MOTION_DOT":"0.00000490","REV_AT_EPOCH":"15508","SITE":"AFETR","TIME_SYSTEM":"UTC","DECAY_DATE":null,"INCLINATION":"53.0543","CLASSIFICATION_TYPE":"U","SEMIMAJOR_AXIS":"6925.335","COUNTRY_CODE":"US","ELEMENT_SET_NO":"999","TLE_LINE1":"1 46146U 20057AF  23162.95050051  .00000490  00000-0  51797-4 0  9990","APOAPSIS":"547.969","PERIOD":"95.592","MEAN_MOTION":"15.06404584","BSTAR":"0.00005179700000","ARG_OF_PERICENTER":"95.4928","EPHEMERIS_TYPE":"0","EPOCH":"2023-06-11T22:48:43.244064","REF_FRAME":"TEME","MEAN_ELEMENT_THEORY":"SGP4","FILE":"3930737","OBJECT_TYPE":"PAYLOAD","RCS_SIZE":"LARGE","TLE_LINE2":"2 46146  53.0543 133.5984 0001111  95.4928 264.6188 15.06404584155088","OBJECT_NAME":"STARLINK-1608","GP_ID":"233722855"},{"INCLINATION":"53.0535","SEMIMAJOR_AXIS":"6925.369","CLASSIFICATION_TYPE":"U","DECAY_DATE":null,"APOAPSIS":"547.985","COUNTRY_CODE":"US","ELEMENT_SET_NO":"999","TLE_LINE1":"1 46147U 20057AG  23162.33496019 -.00000735  00000-0 -30477-4 0  9997","REV_AT_EPOCH":"15624","SITE":"AFETR","TIME_SYSTEM":"UTC","MEAN_ANOMALY":"284.9167","RA_OF_ASC_NODE":"136.3617","PERIAPSIS":"546.483","MEAN_MOTION_DOT":"-0.00000735","ECCENTRICITY":"0.00010840","CENTER_NAME":"EARTH","OBJECT_ID":"2020-057AG","MEAN_MOTION_DDOT":"0.0000000000000","LAUNCH_DATE":"2020-08-18","NORAD_CAT_ID":"46147","RCS_SIZE":"LARGE","GP_ID":"233691207","TLE_LINE2":"2 46147  53.0535 136.3617 0001084  75.1942 284.9167 15.06393363156247","OBJECT_NAME":"STARLINK-1611","EPOCH":"2023-06-11T08:02:20.560416","EPHEMERIS_TYPE":"0","MEAN_ELEMENT_THEORY":"SGP4","FILE":"3930529","OBJECT_TYPE":"PAYLOAD","REF_FRAME":"TEME","BSTAR":"-0.00003047700000","ARG_OF_PERICENTER":"75.1942","PERIOD":"95.593","MEAN_MOTION":"15.06393363"},{"ECCENTRICITY":"0.00011270","MEAN_MOTION_DOT":"0.00000410","PERIAPSIS":"546.468","RA_OF_ASC_NODE":"115.1462","MEAN_ANOMALY":"258.9328","NORAD_CAT_ID":"46148","LAUNCH_DATE":"2020-08-18","MEAN_MOTION_DDOT":"0.0000000000000","OBJECT_ID":"2020-057AH","CENTER_NAME":"EARTH","TLE_LINE1":"1 46148U 20057AH  23162.60588093  .00000410  00000-0  46443-4 0  9990","ELEMENT_SET_NO":"999","COUNTRY_CODE":"US","APOAPSIS":"548.029","DECAY_DATE":null,"SEMIMAJOR_AXIS":"6925.384","CLASSIFICATION_TYPE":"U","INCLINATION":"53.0536","TIME_SYSTEM":"UTC","SITE":"AFETR","REV_AT_EPOCH":"15530","ARG_OF_PERICENTER":"101.1788","BSTAR":"0.00004644300000","MEAN_MOTION":"15.06388552","PERIOD":"95.593","TLE_LINE2":"2 46148  53.0536 115.1462 0001127 101.1788 258.9328 15.06388552155308","OBJECT_NAME":"STARLINK-1616","GP_ID":"233723353","RCS_SIZE":"LARGE","REF_FRAME":"TEME","OBJECT_TYPE":"PAYLOAD","FILE":"3930737","MEAN_ELEMENT_THEORY":"SGP4","EPHEMERIS_TYPE":"0","EPOCH":"2023-06-11T14:32:28.112352"},{"MEAN_MOTION":"15.06388257","PERIOD":"95.593","ARG_OF_PERICENTER":"84.0293","BSTAR":"0.00002882600000","REF_FRAME":"TEME","OBJECT_TYPE":"PAYLOAD","FILE":"3930529","MEAN_ELEMENT_THEORY":"SGP4","EPHEMERIS_TYPE":"0","EPOCH":"2023-06-11T06:54:38.558592","TLE_LINE2":"2 46149  53.0549 116.5641 0001359  84.0293 276.0851 15.06388257156534","OBJECT_NAME":"STARLINK-1620","GP_ID":"233691699","RCS_SIZE":"LARGE","NORAD_CAT_ID":"46149","LAUNCH_DATE":"2020-08-18","MEAN_MOTION_DDOT":"0.0000000000000","OBJECT_ID":"2020-057AJ","CENTER_NAME":"EARTH","ECCENTRICITY":"0.00013590","MEAN_MOTION_DOT":"0.00000148","PERIAPSIS":"546.308","RA_OF_ASC_NODE":"116.5641","MEAN_ANOMALY":"276.0851","TIME_SYSTEM":"UTC","SITE":"AFETR","REV_AT_EPOCH":"15653","TLE_LINE1":"1 46149U 20057AJ  23162.28794628  .00000148  00000-0  28826-4 0  9991","ELEMENT_SET_NO":"999","COUNTRY_CODE":"US","APOAPSIS":"548.191","DECAY_DATE":null,"CLASSIFICATION_TYPE":"U","SEMIMAJOR_AXIS":"6925.385","INCLINATION":"53.0549"},{"APOAPSIS":"548.044","TLE_LINE1":"1 46150U 20057AK  23162.74777937 -.00000584  00000-0 -20323-4 0  9998","ELEMENT_SET_NO":"999","COUNTRY_CODE":"US","SEMIMAJOR_AXIS":"6925.345","CLASSIFICATION_TYPE":"U","INCLINATION":"53.0545","DECAY_DATE":null,"TIME_SYSTEM":"UTC","SITE":"AFETR","REV_AT_EPOCH":"15505","MEAN_MOTION_DOT":"-0.00000584","ECCENTRICITY":"0.00012030","RA_OF_ASC_NODE":"134.5059","MEAN_ANOMALY":"270.1212","PERIAPSIS":"546.377","LAUNCH_DATE":"2020-08-18","NORAD_CAT_ID":"46150","OBJECT_ID":"2020-057AK","CENTER_NAME":"EARTH","MEAN_MOTION_DDOT":"0.0000000000000","GP_ID":"233722355","TLE_LINE2":"2 46150  53.0545 134.5059 0001203  89.9914 270.1212 15.06401018155050","OBJECT_NAME":"STARLINK-1629","RCS_SIZE":"LARGE","OBJECT_TYPE":"PAYLOAD","FILE":"3930737","MEAN_ELEMENT_THEORY":"SGP4","REF_FRAME":"TEME","EPOCH":"2023-06-11T17:56:48.137568","EPHEMERIS_TYPE":"0","ARG_OF_PERICENTER":"89.9914","BSTAR":"-0.00002032300000","MEAN_MOTION":"15.06401018","PERIOD":"95.592"},{"TIME_SYSTEM":"UTC","REV_AT_EPOCH":"15530","SITE":"AFETR","COUNTRY_CODE":"US","TLE_LINE1":"1 46151U 20057AL  23162.59113266  .00000259  00000-0  36314-4 0  9995","ELEMENT_SET_NO":"999","APOAPSIS":"548.092","DECAY_DATE":null,"INCLINATION":"53.0532","SEMIMAJOR_AXIS":"6925.369","CLASSIFICATION_TYPE":"U","NORAD_CAT_ID":"46151","LAUNCH_DATE":"2020-08-18","MEAN_MOTION_DDOT":"0.0000000000000","CENTER_NAME":"EARTH","OBJECT_ID":"2020-057AL","ECCENTRICITY":"0.00012380","MEAN_MOTION_DOT":"0.00000259","PERIAPSIS":"546.377","MEAN_ANOMALY":"257.0989","RA_OF_ASC_NODE":"115.2110","REF_FRAME":"TEME","MEAN_ELEMENT_THEORY":"SGP4","FILE":"3930529","OBJECT_TYPE":"PAYLOAD","EPHEMERIS_TYPE":"0","EPOCH":"2023-06-11T14:11:13.861824","OBJECT_NAME":"STARLINK-1631","TLE_LINE2":"2 46151  53.0532 115.2110 0001238 103.0139 257.0989 15.06393239155304","GP_ID":"233690708","RCS_SIZE":"LARGE","MEAN_MOTION":"15.06393239","PERIOD":"95.593","BSTAR":"0.00003631400000","ARG_OF_PERICENTER":"103.0139"},{"LAUNCH_DATE":"2020-08-18","NORAD_CAT_ID":"46152","CENTER_NAME":"EARTH","OBJECT_ID":"2020-057AM","MEAN_MOTION_DDOT":"0.0000000000000","MEAN_MOTION_DOT":"0.00000352","ECCENTRICITY":"0.00009030","MEAN_ANOMALY":"256.1189","RA_OF_ASC_NODE":"133.7962","PERIAPSIS":"546.583","TIME_SYSTEM":"UTC","REV_AT_EPOCH":"15507","SITE":"AFETR","APOAPSIS":"547.833","COUNTRY_CODE":"US","ELEMENT_SET_NO":"999","TLE_LINE1":"1 46152U 20057AM  23162.90532494  .00000352  00000-0  42532-4 0  9992","INCLINATION":"53.0543","CLASSIFICATION_TYPE":"U","SEMIMAJOR_AXIS":"6925.343","DECAY_DATE":null,"MEAN_MOTION":"15.06401806","PERIOD":"95.592","BSTAR":"0.00004253200000","ARG_OF_PERICENTER":"103.9901","FILE":"3930737","MEAN_ELEMENT_THEORY":"SGP4","OBJECT_TYPE":"PAYLOAD","REF_FRAME":"TEME","EPOCH":"2023-06-11T21:43:40.074816","EPHEMERIS_TYPE":"0","GP_ID":"233723854","TLE_LINE2":"2 46152  53.0543 133.7962 0000903 103.9901 256.1189 15.06401806155077","OBJECT_NAME":"STARLINK-1634","RCS_SIZE":"LARGE"}];
